{
  "type": "FeatureCollection",
  "features": [
    {
      "type": "Feature",
      "properties": {
        "norad_id": 44334,
        "name": "EUTELSAT 7C",
        "group": "eutelsat",
        "lat": -0.025559785638041708,
        "lon": 167.73173790129542,
        "alt_km": 35782.01090242097,
        "timestamp": "2025-12-07T05:38:09.579620+00:00",
        "meta_object_name": "EUTELSAT 7C",
        "meta_object_id": "2019-034B",
        "meta_epoch": "2025-12-06T03:25:30.364320",
        "meta_mean_motion": 1.00270039,
        "meta_eccentricity": 0.00034504,
        "meta_inclination": 0.0751,
        "meta_ra_of_asc_node": 179.1623,
        "meta_arg_of_pericenter": 60.529,
        "meta_mean_anomaly": 253.8532,
        "meta_ephemeris_type": 0,
        "meta_classification_type": "U",
        "meta_norad_cat_id": 44334,
        "meta_element_set_no": 999,
        "meta_rev_at_epoch": 490,
        "meta_bstar": 0,
        "meta_mean_motion_dot": 5.6e-07,
        "meta_mean_motion_ddot": 0,
        "tle_line1": "1 44334U 19034B   25340.14271255  .00000056  00000+0  00000+0 0  9995",
        "tle_line2": "2 44334   0.0751 179.1623 0003450  60.5290 253.8532  1.00270039  4909"
      },
      "geometry": {
        "type": "Point",
        "coordinates": [
          167.73173790129542,
          -0.025559785638041708
        ]
      }
    },
    {
      "type": "Feature",
      "properties": {
        "norad_id": 44624,
        "name": "EUTELSAT 5 WEST B",
        "group": "eutelsat",
        "lat": -0.0005689315297627187,
        "lon": 155.75322604074157,
        "alt_km": 35789.179961448215,
        "timestamp": "2025-12-07T05:38:09.579631+00:00",
        "meta_object_name": "EUTELSAT 5 WEST B",
        "meta_object_id": "2019-067A",
        "meta_epoch": "2025-12-06T08:30:19.232064",
        "meta_mean_motion": 1.00270407,
        "meta_eccentricity": 0.00035896,
        "meta_inclination": 0.0672,
        "meta_ra_of_asc_node": 334.8834,
        "meta_arg_of_pericenter": 281.2094,
        "meta_mean_anomaly": 301.8866,
        "meta_ephemeris_type": 0,
        "meta_classification_type": "U",
        "meta_norad_cat_id": 44624,
        "meta_element_set_no": 999,
        "meta_rev_at_epoch": 2250,
        "meta_bstar": 0,
        "meta_mean_motion_dot": -3.5e-07,
        "meta_mean_motion_ddot": 0,
        "tle_line1": "1 44624U 19067A   25340.35438926 -.00000035  00000+0  00000+0 0  9994",
        "tle_line2": "2 44624   0.0672 334.8834 0003589 281.2094 301.8866  1.00270407 22503"
      },
      "geometry": {
        "type": "Point",
        "coordinates": [
          155.75322604074157,
          -0.0005689315297627187
        ]
      }
    },
    {
      "type": "Feature",
      "properties": {
        "norad_id": 45027,
        "name": "EUTELSAT KONNECT",
        "group": "eutelsat",
        "lat": 0.061493469021446256,
        "lon": 167.94438696001984,
        "alt_km": 35790.69868113096,
        "timestamp": "2025-12-07T05:38:09.579643+00:00",
        "meta_object_name": "EUTELSAT KONNECT",
        "meta_object_id": "2020-005B",
        "meta_epoch": "2025-12-05T22:17:29.870880",
        "meta_mean_motion": 1.00267987,
        "meta_eccentricity": 0.00018557,
        "meta_inclination": 0.0712,
        "meta_ra_of_asc_node": 98.3329,
        "meta_arg_of_pericenter": 187.648,
        "meta_mean_anomaly": 130.555,
        "meta_ephemeris_type": 0,
        "meta_classification_type": "U",
        "meta_norad_cat_id": 45027,
        "meta_element_set_no": 999,
        "meta_rev_at_epoch": 2238,
        "meta_bstar": 0,
        "meta_mean_motion_dot": 5.8e-07,
        "meta_mean_motion_ddot": 0,
        "tle_line1": "1 45027U 20005B   25339.92881795  .00000058  00000+0  00000+0 0  9997",
        "tle_line2": "2 45027   0.0712  98.3329 0001855 187.6480 130.5550  1.00267987 22381"
      },
      "geometry": {
        "type": "Point",
        "coordinates": [
          167.94438696001984,
          0.061493469021446256
        ]
      }
    },
    {
      "type": "Feature",
      "properties": {
        "norad_id": 49056,
        "name": "EUTELSAT QUANTUM",
        "group": "eutelsat",
        "lat": -0.007457379012338022,
        "lon": -151.54494039864247,
        "alt_km": 35778.3600149476,
        "timestamp": "2025-12-07T05:38:09.579654+00:00",
        "meta_object_name": "EUTELSAT QUANTUM",
        "meta_object_id": "2021-069B",
        "meta_epoch": "2025-12-06T13:53:33.274176",
        "meta_mean_motion": 1.0027055,
        "meta_eccentricity": 0.00037127,
        "meta_inclination": 0.0267,
        "meta_ra_of_asc_node": 41.909,
        "meta_arg_of_pericenter": 226.1058,
        "meta_mean_anomaly": 63.6905,
        "meta_ephemeris_type": 0,
        "meta_classification_type": "U",
        "meta_norad_cat_id": 49056,
        "meta_element_set_no": 999,
        "meta_rev_at_epoch": 1599,
        "meta_bstar": 0,
        "meta_mean_motion_dot": 1.33e-06,
        "meta_mean_motion_ddot": 0,
        "tle_line1": "1 49056U 21069B   25340.57885734  .00000133  00000+0  00000+0 0  9998",
        "tle_line2": "2 49056   0.0267  41.9090 0003712 226.1058  63.6905  1.00270550 15994"
      },
      "geometry": {
        "type": "Point",
        "coordinates": [
          -151.54494039864247,
          -0.007457379012338022
        ]
      }
    },
    {
      "type": "Feature",
      "properties": {
        "norad_id": 53765,
        "name": "EUTELSAT KONNECT VHTS",
        "group": "eutelsat",
        "lat": 0.04766726299786304,
        "lon": 163.45811461237605,
        "alt_km": 35783.22461315028,
        "timestamp": "2025-12-07T05:38:09.579666+00:00",
        "meta_object_name": "EUTELSAT KONNECT VHTS",
        "meta_object_id": "2022-110A",
        "meta_epoch": "2025-12-06T08:32:34.016928",
        "meta_mean_motion": 1.00269283,
        "meta_eccentricity": 0.00027008,
        "meta_inclination": 0.0618,
        "meta_ra_of_asc_node": 107.6328,
        "meta_arg_of_pericenter": 127.7681,
        "meta_mean_anomaly": 330.8385,
        "meta_ephemeris_type": 0,
        "meta_classification_type": "U",
        "meta_norad_cat_id": 53765,
        "meta_element_set_no": 999,
        "meta_rev_at_epoch": 489,
        "meta_bstar": 0,
        "meta_mean_motion_dot": 2.4e-07,
        "meta_mean_motion_ddot": 0,
        "tle_line1": "1 53765U 22110A   25340.35594927  .00000024  00000+0  00000+0 0  9994",
        "tle_line2": "2 53765   0.0618 107.6328 0002700 127.7681 330.8385  1.00269283  4893"
      },
      "geometry": {
        "type": "Point",
        "coordinates": [
          163.45811461237605,
          0.04766726299786304
        ]
      }
    },
    {
      "type": "Feature",
      "properties": {
        "norad_id": 54048,
        "name": "EUTELSAT HOTBIRD 13F",
        "group": "eutelsat",
        "lat": -0.046189380153814484,
        "lon": 173.79389743778844,
        "alt_km": 35795.92267025304,
        "timestamp": "2025-12-07T05:38:09.579678+00:00",
        "meta_object_name": "EUTELSAT HOTBIRD 13F",
        "meta_object_id": "2022-134A",
        "meta_epoch": "2025-12-06T01:44:32.536320",
        "meta_mean_motion": 1.00271355,
        "meta_eccentricity": 0.00023431,
        "meta_inclination": 0.0469,
        "meta_ra_of_asc_node": 294.3782,
        "meta_arg_of_pericenter": 57.7205,
        "meta_mean_anomaly": 122.1557,
        "meta_ephemeris_type": 0,
        "meta_classification_type": "U",
        "meta_norad_cat_id": 54048,
        "meta_element_set_no": 999,
        "meta_rev_at_epoch": 1144,
        "meta_bstar": 0,
        "meta_mean_motion_dot": 9.6e-07,
        "meta_mean_motion_ddot": 0,
        "tle_line1": "1 54048U 22134A   25340.07259880  .00000096  00000+0  00000+0 0  9999",
        "tle_line2": "2 54048   0.0469 294.3782 0002343  57.7205 122.1557  1.00271355 11442"
      },
      "geometry": {
        "type": "Point",
        "coordinates": [
          173.79389743778844,
          -0.046189380153814484
        ]
      }
    },
    {
      "type": "Feature",
      "properties": {
        "norad_id": 54225,
        "name": "EUTELSAT HOTBIRD 13G",
        "group": "eutelsat",
        "lat": -0.03695581195285617,
        "lon": 173.7760708941026,
        "alt_km": 35778.51856640743,
        "timestamp": "2025-12-07T05:38:09.579689+00:00",
        "meta_object_name": "EUTELSAT HOTBIRD 13G",
        "meta_object_id": "2022-146A",
        "meta_epoch": "2025-12-05T15:28:18.292224",
        "meta_mean_motion": 1.00270321,
        "meta_eccentricity": 0.00019255,
        "meta_inclination": 0.0461,
        "meta_ra_of_asc_node": 235.0424,
        "meta_arg_of_pericenter": 313.1322,
        "meta_mean_anomaly": 131.5912,
        "meta_ephemeris_type": 0,
        "meta_classification_type": "U",
        "meta_norad_cat_id": 54225,
        "meta_element_set_no": 999,
        "meta_rev_at_epoch": 552,
        "meta_bstar": 0,
        "meta_mean_motion_dot": 9.7e-07,
        "meta_mean_motion_ddot": 0,
        "tle_line1": "1 54225U 22146A   25339.64465616  .00000097  00000+0  00000+0 0  9997",
        "tle_line2": "2 54225   0.0461 235.0424 0001925 313.1322 131.5912  1.00270321  5523"
      },
      "geometry": {
        "type": "Point",
        "coordinates": [
          173.7760708941026,
          -0.03695581195285617
        ]
      }
    }
  ]
}